GLOBALSTAR M057         
1 25943U 99058A   25086.83393464 -.00000110  00000+0 -15346-3 0  9990
2 25943  51.9972 219.0825 0002801 193.7036 166.3738 12.24815984156960
GLOBALSTAR M059         
1 25944U 99058B   25086.95286851 -.00000070  00000+0  19507-3 0  9992
2 25944  52.0017  66.9342 0000530 136.0499 254.9689 11.99975342564290
GLOBALSTAR M056         
1 25945U 99058C   25086.72785138 -.00000061  00000+0  30382-3 0  9994
2 25945  51.9959  71.5925 0001121  26.8545 143.8792 12.04778524152809
GLOBALSTAR M031         
1 25946U 99058D   25086.61957529  .00000003  00000+0  95067-3 0  9994
2 25946  51.9988 329.1097 0001835  37.0342 357.3213 12.16034118154624
GLOBALSTAR M039         
1 25961U 99062A   25086.53003410 -.00000067  00000+0  20584-3 0  9991
2 25961  51.9834 157.4286 0003118 161.3840 198.7141 12.62321703169907
GLOBALSTAR M034         
1 25962U 99062B   25086.87128058 -.00000092  00000+0 -17767-3 0  9993
2 25962  51.9860 222.7617 0013665 244.5518 287.5690 11.79446047128799
GLOBALSTAR M029         
1 25963U 99062C   25086.89301773 -.00000022  00000+0  79122-3 0  9998
2 25963  51.9815 315.2088 0002145 335.8783 140.5112 11.99893570159362
GLOBALSTAR M061         
1 25964U 99062D   25086.92209076 -.00000086  00000+0 -10221-3 0  9992
2 25964  51.9811  45.5828 0005870 169.5107 261.8214 11.76772236111610
